EUTELSAT QUANTUM        
1 49056U 21069B   25337.08322405  .00000145  00000+0  00000+0 0  9994
2 49056   0.0169  10.7280 0003747 255.0351 244.0851  1.00271603 15967
EUTELSAT KONNECT VHTS   
1 53765U 22110A   25337.21699630  .00000036  00000+0  00000+0 0  9995
2 53765   0.0603 107.1016 0002763 123.1613 282.8564  1.00269007  4866
EUTELSAT HOTBIRD 13F    
1 54048U 22134A   25336.83169501  .00000107  00000+0  00000+0 0  9991
2 54048   0.0542 289.0481 0001917  66.1354  29.1621  1.00271371 11408
EUTELSAT HOTBIRD 13G    
1 54225U 22146A   25337.00502889  .00000107  00000+0  00000+0 0  9991
2 54225   0.0475 238.4149 0002104 306.4933 262.0024  1.00271219  5499
EUTELSAT 10B            
1 54259U 22157A   25337.19003164  .00000087  00000+0  00000+0 0  9999
2 54259   0.0608 103.5780 0001038  72.8343 334.2971  1.00268425 11069
EUTELSAT 36D            
1 59346U 24059A   25337.29491008  .00000000  00000+0  00000+0 0  9998
2 59346   0.0218 343.4157 0000614 318.4839 272.5050  1.00270698  6183
